[{"OBJECT_NAME":"STARLINK-3631","OBJECT_ID":"2022-017Y","EPOCH":"2026-03-09T23:21:25.113312","MEAN_MOTION":15.08823499,"ECCENTRICITY":0.00014429,"INCLINATION":53.2201,"RA_OF_ASC_NODE":347.8441,"ARG_OF_PERICENTER":107.023,"MEAN_ANOMALY":253.092,"EPHEMERIS_TYPE":0,"CLASSIFICATION_TYPE":"U","NORAD_CAT_ID":51790,"ELEMENT_SET_NO":999,"REV_AT_EPOCH":22401,"BSTAR":0.00023783046,"MEAN_MOTION_DOT":3.497e-5,"MEAN_MOTION_DDOT":0},{"OBJECT_NAME":"DELTA 1 DEB","OBJECT_ID":"1978-026BU","EPOCH":"2026-03-09T11:22:20.910432","MEAN_MOTION":14.96481719,"ECCENTRICITY":0.00669454,"INCLINATION":98.7967,"RA_OF_ASC_NODE":254.5698,"ARG_OF_PERICENTER":166.8222,"MEAN_ANOMALY":193.4765,"EPHEMERIS_TYPE":0,"CLASSIFICATION_TYPE":"U","NORAD_CAT_ID":12227,"ELEMENT_SET_NO":999,"REV_AT_EPOCH":38498,"BSTAR":0.0006297912,"MEAN_MOTION_DOT":7.412e-5,"MEAN_MOTION_DDOT":0}]
